IRIDIUM 116             
1 43072U 17083C   24029.34109930  .00000189  00000+0  60290-4 0  9999
2 43072  86.4000 325.5525 0002219  88.0756 272.0694 14.34217488319499
IRIDIUM 130             
1 43073U 17083D   24029.30938848  .00000030  00000+0  35520-5 0  9998
2 43073  86.4011 325.7570 0001966  86.6540 273.4880 14.34217631319433
IRIDIUM 151             
1 43074U 17083E   24029.35378691  .00000530  00000+0  18225-3 0  9994
2 43074  86.4003 325.5853 0002468  84.5753 275.5725 14.34219047319465
IRIDIUM 134             
1 43075U 17083F   24029.32207193  .00000147  00000+0  45566-4 0  9993
2 43075  86.4004 325.5949 0001928  86.5948 273.5469 14.34217620319425
IRIDIUM 137             
1 43076U 17083G   24029.33475197  .00000531  00000+0  18256-3 0  9998
2 43076  86.4005 325.6649 0002363  93.6595 266.4871 14.34222781319495
IRIDIUM 141             
1 43077U 17083H   24028.84003341  .00000172  00000+0  54442-4 0  9991
2 43077  86.3998 325.7515 0002150  79.5027 280.6410 14.34216216319422
IRIDIUM 153             
1 43078U 17083J   24028.79221580  .00000182  00000+0  57959-4 0  9990
2 43078  86.3974 294.2230 0002299  75.2127 284.9324 14.34217451320525
IRIDIUM 131             
1 43079U 17083K   24028.82735055  .00000398  00000+0  13497-3 0  9999
2 43079  86.4006 325.8847 0002181  85.0485 275.0960 14.34217614319351
